0 DELTA 1 DEB
1 07959U 72058CP  13283.93123369  .00000658  00000-0  28174-3 0  1182
2 07959 097.9553 269.6438 0251891 222.6362 191.0950 14.12180057113354
0 DELTA 1 DEB
1 07959U 72058CP  13286.49344348  .00000270  00000-0  12527-3 0  1194
2 07959 097.9554 271.9221 0252056 215.1697 256.9971 14.12185654113715
0 DELTA 1 DEB
1 07959U 72058CP  13288.54964844  .00000463  00000-0  20278-3 0  1209
2 07959 097.9558 273.7504 0252168 209.1779 270.4870 14.12188049114004
0 DELTA 1 DEB
1 07959U 72058CP  13291.52610020  .00000719  00000-0  30567-3 0  1212
2 07959 097.9565 276.3969 0252348 200.4955 282.4457 14.12188513114422
0 DELTA 1 DEB
1 07959U 72058CP  13293.79317020  .00000664  00000-0  28309-3 0  1228
2 07959 097.9569 278.4129 0252507 193.9036 287.9613 14.12192449114742
0 DELTA 1 DEB
1 07959U 72058CP  13295.83400010  .00000407  00000-0  17944-3 0  1236
2 07959 097.9569 280.2280 0252628 187.9665 223.3198 14.12197214115036
